{"type": "FeatureCollection", "features": [ {"type": "Feature", "properties": {"norad_id": 66898, "name": "STARLINK-36065", "group": "last-30-days", "lat": 29.443710092401318, "lon": -170.76143771616958, "alt_km": 343.1374541932191, "timestamp": "2025-12-20T14:38:00.690575+00:00", "meta": {"OBJECT_NAME": "STARLINK-36065", "OBJECT_ID": "2025-283W", "EPOCH": "2025-12-20T06:00:02.999808", "MEAN_MOTION": 15.74220368, "ECCENTRICITY": 7.924e-05, "INCLINATION": 53.1575, "RA_OF_ASC_NODE": 36.0638, "ARG_OF_PERICENTER": 87.5357, "MEAN_ANOMALY": 174.8597, "EPHEMERIS_TYPE": 0, "CLASSIFICATION_TYPE": "U", "NORAD_CAT_ID": 66898, "ELEMENT_SET_NO": 999, "REV_AT_EPOCH": 363, "BSTAR": -0.00052390264, "MEAN_MOTION_DOT": -0.00076762, "MEAN_MOTION_DDOT": 0}, "tle": {"line1": "1 66898U 25283W   25354.25003472 -.00076762  00000+0 -52390-3 0  9990", "line2": "2 66898  53.1575  36.0638 0000792  87.5357 174.8597 15.74220368  3635"}}, "geometry": {"type": "Point", "coordinates": [-170.76143771616958, 29.443710092401318]}}, {"type": "Feature", "properties": {"norad_id": 66899, "name": "STARLINK-36064", "group": "last-30-days", "lat": 28.037079005908545, "lon": -169.2599765072046, "alt_km": 342.9965931691004, "timestamp": "2025-12-20T14:38:00.690589+00:00", "meta": {"OBJECT_NAME": "STARLINK-36064", "OBJECT_ID": "2025-283X", "EPOCH": "2025-12-20T06:00:02.999808", "MEAN_MOTION": 15.74230635, "ECCENTRICITY": 0.00014864, "INCLINATION": 53.1574, "RA_OF_ASC_NODE": 36.0601, "ARG_OF_PERICENTER": 95.5675, "MEAN_ANOMALY": 168.7393, "EPHEMERIS_TYPE": 0, "CLASSIFICATION_TYPE": "U", "NORAD_CAT_ID": 66899, "ELEMENT_SET_NO": 999, "REV_AT_EPOCH": 357, "BSTAR": -0.00057347951, "MEAN_MOTION_DOT": -0.0008394, "MEAN_MOTION_DDOT": 0}, "tle": {"line1": "1 66899U 25283X   25354.25003472 -.00083940  00000+0 -57348-3 0  9995", "line2": "2 66899  53.1574  36.0601 0001486  95.5675 168.7393 15.74230635  3575"}}, "geometry": {"type": "Point", "coordinates": [-169.2599765072046, 28.037079005908545]}}, {"type": "Feature", "properties": {"norad_id": 66900, "name": "STARLINK-36074", "group": "last-30-days", "lat": 26.62825081543114, "lon": -167.81230608873983, "alt_km": 343.6277852844996, "timestamp": "2025-12-20T14:38:00.690600+00:00", "meta": {"OBJECT_NAME": "STARLINK-36074", "OBJECT_ID": "2025-283Y", "EPOCH": "2025-12-20T06:00:02.999808", "MEAN_MOTION": 15.74280783, "ECCENTRICITY": 7.491e-05, "INCLINATION": 53.1574, "RA_OF_ASC_NODE": 36.0556, "ARG_OF_PERICENTER": 82.1301, "MEAN_ANOMALY": 184.0488, "EPHEMERIS_TYPE": 0, "CLASSIFICATION_TYPE": "U", "NORAD_CAT_ID": 66900, "ELEMENT_SET_NO": 999, "REV_AT_EPOCH": 363, "BSTAR": -0.00092361136, "MEAN_MOTION_DOT": -0.00134287, "MEAN_MOTION_DDOT": 0}, "tle": {"line1": "1 66900U 25283Y   25354.25003472 -.00134287  00000+0 -92361-3 0  9993", "line2": "2 66900  53.1574  36.0556 0000749  82.1301 184.0488 15.74280783  3638"}}, "geometry": {"type": "Point", "coordinates": [-167.81230608873983, 26.62825081543114]}}, {"type": "Feature", "properties": {"norad_id": 66901, "name": "STARLINK-36043", "group": "last-30-days", "lat": 25.231885177555363, "lon": -166.42542613522923, "alt_km": 343.8318485618529, "timestamp": "2025-12-20T14:38:00.690609+00:00", "meta": {"OBJECT_NAME": "STARLINK-36043", "OBJECT_ID": "2025-283Z", "EPOCH": "2025-12-20T06:00:02.999808", "MEAN_MOTION": 15.74260403, "ECCENTRICITY": 0.00013858, "INCLINATION": 53.1573, "RA_OF_ASC_NODE": 36.0522, "ARG_OF_PERICENTER": 62.9072, "MEAN_ANOMALY": 205.1137, "EPHEMERIS_TYPE": 0, "CLASSIFICATION_TYPE": "U", "NORAD_CAT_ID": 66901, "ELEMENT_SET_NO": 999, "REV_AT_EPOCH": 363, "BSTAR": -0.00021233553, "MEAN_MOTION_DOT": -0.00031707, "MEAN_MOTION_DDOT": 0}, "tle": {"line1": "1 66901U 25283Z   25354.25003472 -.00031707  00000+0 -21234-3 0  9998", "line2": "2 66901  53.1573  36.0522 0001385  62.9072 205.1137 15.74260403  3632"}}, "geometry": {"type": "Point", "coordinates": [-166.42542613522923, 25.231885177555363]}}, {"type": "Feature", "properties": {"norad_id": 66902, "name": "STARLINK-35983", "group": "last-30-days", "lat": 23.740356853410425, "lon": -164.99243224992202, "alt_km": 343.94462136767106, "timestamp": "2025-12-20T14:38:00.690619+00:00", "meta": {"OBJECT_NAME": "STARLINK-35983", "OBJECT_ID": "2025-283AA", "EPOCH": "2025-12-20T06:00:02.999808", "MEAN_MOTION": 15.74243564, "ECCENTRICITY": 0.00011466, "INCLINATION": 53.1575, "RA_OF_ASC_NODE": 36.048, "ARG_OF_PERICENTER": 94.9715, "MEAN_ANOMALY": 175.0975, "EPHEMERIS_TYPE": 0, "CLASSIFICATION_TYPE": "U", "NORAD_CAT_ID": 66902, "ELEMENT_SET_NO": 999, "REV_AT_EPOCH": 363, "BSTAR": -0.00079011238, "MEAN_MOTION_DOT": -0.00115049, "MEAN_MOTION_DDOT": 0}, "tle": {"line1": "1 66902U 25283AA  25354.25003472 -.00115049  00000+0 -79011-3 0  9997", "line2": "2 66902  53.1575  36.0480 0001146  94.9715 175.0975 15.74243564  3636"}}, "geometry": {"type": "Point", "coordinates": [-164.99243224992202, 23.740356853410425]}}, {"type": "Feature", "properties": {"norad_id": 66903, "name": "STARLINK-36077", "group": "last-30-days", "lat": 22.291111451512105, "lon": -163.6430208589409, "alt_km": 344.2583543970468, "timestamp": "2025-12-20T14:38:00.690629+00:00", "meta": {"OBJECT_NAME": "STARLINK-36077", "OBJECT_ID": "2025-283AB", "EPOCH": "2025-12-20T06:00:02.999808", "MEAN_MOTION": 15.74233723, "ECCENTRICITY": 0.00010923, "INCLINATION": 53.1575, "RA_OF_ASC_NODE": 36.044, "ARG_OF_PERICENTER": 92.1107, "MEAN_ANOMALY": 179.8757, "EPHEMERIS_TYPE": 0, "CLASSIFICATION_TYPE": "U", "NORAD_CAT_ID": 66903, "ELEMENT_SET_NO": 999, "REV_AT_EPOCH": 363, "BSTAR": -0.00072522202, "MEAN_MOTION_DOT": -0.00105722, "MEAN_MOTION_DDOT": 0}, "tle": {"line1": "1 66903U 25283AB  25354.25003472 -.00105722  00000+0 -72522-3 0  9995", "line2": "2 66903  53.1575  36.0440 0001092  92.1107 179.8757 15.74233723  3634"}}, "geometry": {"type": "Point", "coordinates": [-163.6430208589409, 22.291111451512105]}}, {"type": "Feature", "properties": {"norad_id": 66904, "name": "STARLINK-36059", "group": "last-30-days", "lat": 20.83171841350039, "lon": -162.3225359300548, "alt_km": 344.54028420093164, "timestamp": "2025-12-20T14:38:00.690639+00:00", "meta": {"OBJECT_NAME": "STARLINK-36059", "OBJECT_ID": "2025-283AC", "EPOCH": "2025-12-20T06:00:02.999808", "MEAN_MOTION": 15.74222467, "ECCENTRICITY": 9.164e-05, "INCLINATION": 53.1577, "RA_OF_ASC_NODE": 36.0396, "ARG_OF_PERICENTER": 91.0746, "MEAN_ANOMALY": 182.8209, "EPHEMERIS_TYPE": 0, "CLASSIFICATION_TYPE": "U", "NORAD_CAT_ID": 66904, "ELEMENT_SET_NO": 999, "REV_AT_EPOCH": 363, "BSTAR": -0.000501649, "MEAN_MOTION_DOT": -0.00073563, "MEAN_MOTION_DDOT": 0}, "tle": {"line1": "1 66904U 25283AC  25354.25003472 -.00073563  00000+0 -50165-3 0  9992", "line2": "2 66904  53.1577  36.0396 0000916  91.0746 182.8209 15.74222467  3637"}}, "geometry": {"type": "Point", "coordinates": [-162.3225359300548, 20.83171841350039]}}, {"type": "Feature", "properties": {"norad_id": 66905, "name": "STARLINK-36075", "group": "last-30-days", "lat": 19.35100705678619, "lon": -161.0165146698043, "alt_km": 344.7842370560984, "timestamp": "2025-12-20T14:38:00.690649+00:00", "meta": {"OBJECT_NAME": "STARLINK-36075", "OBJECT_ID": "2025-283AD", "EPOCH": "2025-12-20T06:00:02.999808", "MEAN_MOTION": 15.74220578, "ECCENTRICITY": 0.00011825, "INCLINATION": 53.1577, "RA_OF_ASC_NODE": 36.0365, "ARG_OF_PERICENTER": 85.8594, "MEAN_ANOMALY": 189.9567, "EPHEMERIS_TYPE": 0, "CLASSIFICATION_TYPE": "U", "NORAD_CAT_ID": 66905, "ELEMENT_SET_NO": 999, "REV_AT_EPOCH": 363, "BSTAR": -0.00048247212, "MEAN_MOTION_DOT": -0.00070794, "MEAN_MOTION_DDOT": 0}, "tle": {"line1": "1 66905U 25283AD  25354.25003472 -.00070794  00000+0 -48247-3 0  9994", "line2": "2 66905  53.1577  36.0365 0001182  85.8594 189.9567 15.74220578  3638"}}, "geometry": {"type": "Point", "coordinates": [-161.0165146698043, 19.35100705678619]}}, {"type": "Feature", "properties": {"norad_id": 66906, "name": "1998-067XS", "group": "last-30-days", "lat": 49.447805733852, "lon": -144.4330370790835, "alt_km": 408.5674835701693, "timestamp": "2025-12-20T14:38:00.690659+00:00", "meta": {"OBJECT_NAME": "1998-067XS", "OBJECT_ID": "1998-067XS", "EPOCH": "2025-12-19T19:37:45.032448", "MEAN_MOTION": 15.50933488, "ECCENTRICITY": 0.00029661, "INCLINATION": 51.6311, "RA_OF_ASC_NODE": 107.3061, "ARG_OF_PERICENTER": 238.2809, "MEAN_ANOMALY": 121.7891, "EPHEMERIS_TYPE": 0, "CLASSIFICATION_TYPE": "U", "NORAD_CAT_ID": 66906, "ELEMENT_SET_NO": 999, "REV_AT_EPOCH": 271, "BSTAR": 0.00034986922, "MEAN_MOTION_DOT": 0.00020233, "MEAN_MOTION_DDOT": 0}, "tle": {"line1": "1 66906U 98067XS  25353.81788232  .00020233  00000+0  34987-3 0  9997", "line2": "2 66906  51.6311 107.3061 0002966 238.2809 121.7891 15.50933488  2714"}}, "geometry": {"type": "Point", "coordinates": [-144.4330370790835, 49.447805733852]}}, {"type": "Feature", "properties": {"norad_id": 66907, "name": "1998-067XT", "group": "last-30-days", "lat": 21.336664635810195, "lon": -94.75508090397562, "alt_km": 408.67582572403717, "timestamp": "2025-12-20T14:38:00.690672+00:00", "meta": {"OBJECT_NAME": "1998-067XT", "OBJECT_ID": "1998-067XT", "EPOCH": "2025-12-19T11:42:50.767776", "MEAN_MOTION": 15.52255247, "ECCENTRICITY": 0.0003998, "INCLINATION": 51.6306, "RA_OF_ASC_NODE": 108.8528, "ARG_OF_PERICENTER": 265.7173, "MEAN_ANOMALY": 94.336, "EPHEMERIS_TYPE": 0, "CLASSIFICATION_TYPE": "U", "NORAD_CAT_ID": 66907, "ELEMENT_SET_NO": 999, "REV_AT_EPOCH": 266, "BSTAR": 0.00077339, "MEAN_MOTION_DOT": 0.00047666, "MEAN_MOTION_DDOT": 0}, "tle": {"line1": "1 66907U 98067XT  25353.48808759  .00047666  00000+0  77339-3 0  9995", "line2": "2 66907  51.6306 108.8528 0003998 265.7173  94.3360 15.52255247  2660"}}, "geometry": {"type": "Point", "coordinates": [-94.75508090397562, 21.336664635810195]}}]}